GSAT0101 (GALILEO-PFM)  
1 37846U 11060A   25139.24989959 -.00000066  00000+0  00000+0 0  9992
2 37846  57.1010 352.4394 0003686  37.0067 323.0607  1.70475752 84539
GSAT0102 (GALILEO-FM2)  
1 37847U 11060B   25140.59979433 -.00000066  00000+0  00000+0 0  9999
2 37847  57.0994 352.4028 0003860   6.6848 147.1804  1.70475895 84438
GSAT0103 (GALILEO-FM3)  
1 38857U 12055A   25139.87604701  .00000062  00000+0  00000+0 0  9993
2 38857  55.5755 112.3491 0005764 288.9785  70.9349  1.70473459 78305
GSAT0201 (GALILEO 5)    
1 40128U 14050A   25139.95633016 -.00000046  00000+0  00000+0 0  9997
2 40128  49.3050 289.4691 1629824 164.2345 201.5303  1.85519641 71028
GSAT0202 (GALILEO 6)    
1 40129U 14050B   25139.67435509 -.00000044  00000+0  00000+0 0  9992
2 40129  49.3200 288.5618 1629795 164.9990 200.4971  1.85520168 73189
GSAT0203 (GALILEO 7)    
1 40544U 15017A   25138.44204517 -.00000067  00000+0  00000+0 0  9999
2 40544  56.8930 352.3496 0002408 289.1886  70.8272  1.70475899 62473
GSAT0204 (GALILEO 8)    
1 40545U 15017B   25139.28353423 -.00000066  00000+0  00000+0 0  9993
2 40545  56.8991 352.3434 0001733 269.1492  90.8725  1.70475589 25531
GSAT0205 (GALILEO 9)    
1 40889U 15045A   25139.05168521  .00000013  00000+0  00000+0 0  9994
2 40889  55.0768 232.4919 0003557  38.4079 321.6640  1.70474039 60297
GSAT0206 (GALILEO 10)   
1 40890U 15045B   25138.09916415  .00000016  00000+0  00000+0 0  9995
2 40890  55.0767 232.5137 0003191  71.0366 289.0468  1.70473968 60304
GSAT0209 (GALILEO 12)   
1 41174U 15079A   25140.02738827  .00000062  00000+0  00000+0 0  9994
2 41174  55.5952 112.0573 0005547 322.4190  37.5180  1.70474029 58079
GSAT0208 (GALILEO 11)   
1 41175U 15079B   25139.07420364  .00000060  00000+0  00000+0 0  9990
2 41175  55.5972 112.0806 0004892 322.0046  37.9341  1.70473975 58475
GSAT0211 (GALILEO 14)   
1 41549U 16030A   25139.78463171  .00000010  00000+0  00000+0 0  9999
2 41549  55.2253 232.5147 0002220 332.5572  27.4752  1.70474082 55969
GSAT0210 (GALILEO 13)   
1 41550U 16030B   25140.62900156  .00000007  00000+0  00000+0 0  9991
2 41550  55.2211 232.4894 0004573 241.8754 118.1199  1.70474109 55974
GSAT0207 (GALILEO 15)   
1 41859U 16069A   25139.73421673  .00000061  00000+0  00000+0 0  9997
2 41859  55.2626 111.9847 0005814 310.3416  49.5828  1.70473974 52692
GSAT0212 (GALILEO 16)   
1 41860U 16069B   25139.58811076  .00000060  00000+0  00000+0 0  9991
2 41860  55.2599 111.9845 0004443 332.4876  27.4637  1.70474182 52946
GSAT0213 (GALILEO 17)   
1 41861U 16069C   25138.19635956  .00000056  00000+0  00000+0 0  9994
2 41861  55.2616 112.0304 0005731 295.4493  64.4614  1.70474697 52782
GSAT0214 (GALILEO 18)   
1 41862U 16069D   25138.92856755  .00000058  00000+0  00000+0 0  9990
2 41862  55.2608 112.0032 0004806 299.7384  60.1864  1.70474232 52921
GSAT0215 (GALILEO 19)   
1 43055U 17079A   25140.00543414  .00000009  00000+0  00000+0 0  9991
2 43055  55.2020 232.3257 0002353 253.0407 106.9773  1.70474655 46283
GSAT0216 (GALILEO 20)   
1 43056U 17079B   25138.53713590  .00000015  00000+0  00000+0 0  9998
2 43056  55.2029 232.3660 0003254 271.0958  88.9151  1.70474880 46271
GSAT0217 (GALILEO 21)   
1 43057U 17079C   25139.34432284  .00000012  00000+0  00000+0 0  9994
2 43057  55.2004 232.3421 0002130 292.6675  67.3559  1.70474848 46274
GSAT0218 (GALILEO 22)   
1 43058U 17079D   25138.39122944  .00000015  00000+0  00000+0 0  9991
2 43058  55.2014 232.3659 0003444 267.6179  92.3913  1.70474849 46283
GSAT0221 (GALILEO 25)   
1 43564U 18060A   25134.18737951 -.00000074  00000+0  00000+0 0  9993
2 43564  57.2741 352.5491 0003286 314.0382  45.9828  1.70475866 42364
GSAT0222 (GALILEO 26)   
1 43565U 18060B   25138.51249551 -.00000066  00000+0  00000+0 0  9990
2 43565  57.2769 352.4351 0001826 271.5757  88.4456  1.70475463 42485
GSAT0219 (GALILEO 23)   
1 43566U 18060C   25139.90706490 -.00000065  00000+0  00000+0 0  9994
2 43566  57.2766 352.3995 0002771 330.6774  29.3491  1.70475664 42488
GSAT0220 (GALILEO 24)   
1 43567U 18060D   25138.95471093 -.00000066  00000+0  00000+0 0  9998
2 43567  57.2761 352.4258 0002620 324.5256  35.4990  1.70475544 42453
GSAT0223 (GALILEO 27)   
1 49809U 21116A   25140.27302716 -.00000065  00000+0  00000+0 0  9991
2 49809  57.2648 352.2825 0000767 150.3889  29.3351  1.70475645 21482
GSAT0224 (GALILEO 28)   
1 49810U 21116B   25139.50958559 -.00000065  00000+0  00000+0 0  9999
2 49810  57.2666 352.3015 0000671 105.2360  78.5027  1.70475743 21499
GSAT0225 (GALILEO 29)   
1 59598U 24079A   25140.39506223  .00000061  00000+0  00000+0 0  9995
2 59598  54.8786 112.0684 0002740 262.2950  96.9709  1.70474298  6612
GSAT0227 (GALILEO 30)   
1 59600U 24079C   25139.99299266  .00000061  00000+0  00000+0 0  9999
2 59600  54.8757 112.0790 0000728   3.1313 356.8452  1.70474324  6669
GSAT0232 (GALILEO 32)   
1 61182U 24167A   25139.85624177  .00000010  00000+0  00000+0 0  9997
2 61182  55.3123 232.1058 0004167 212.9543 258.1486  1.70474317  4174
GSAT0226 (GALILEO 31)   
1 61183U 24167B   25140.62972126  .00000007  00000+0  00000+0 0  9991
2 61183  55.3108 232.0901 0002235 193.1065 145.2799  1.70474382  4150
